     2.10           G: GLONASS NAV DATA                     RINEX VERSION / TYPE
teqc  2015Jun23                         20210725 01:25:47UTCPGM / RUN BY / DATE
Linux 2.4.21-27.ELsmp|Opteron|gcc -static|Linux x86_64|=+   COMMENT
  2021     7     1    2.607703208923D-08                    CORR TO SYSTEM TIME
                                                            END OF HEADER
16 21  7  2  3 45  0.0-1.725181937218D-05 0.000000000000D+00 1.260000000000D+04
   -5.185837890625D+03 2.123842239380D-01 9.313225746155D-10 0.000000000000D+00
    2.446859960938D+04-7.087135314941D-01 0.000000000000D+00-1.000000000000D+00
   -5.348114746094D+03-3.448252677917D+00 9.313225746155D-10 0.000000000000D+00
20 21  7  2  4 15  0.0-5.181320011616D-05-0.000000000000D+00 1.440000000000D+04
    9.800733398438D+03-1.971647262573D+00 9.313225746155D-10 0.000000000000D+00
    1.547773193359D+04-1.436454772949D+00 9.313225746155D-10 2.000000000000D+00
    1.772950146484D+04 2.347357749939D+00-9.313225746155D-10 0.000000000000D+00
16 21  7  2  4 15  0.0-1.725088804960D-05 0.000000000000D+00 1.440000000000D+04
   -4.886290527344D+03 8.240222930908D-02 9.313225746155D-10 0.000000000000D+00
    2.243148388672D+04-1.537750244141D+00-0.000000000000D+00-1.000000000000D+00
   -1.127027783203D+04-3.089521408081D+00 1.862645149231D-09 0.000000000000D+00
 5 21  7  2  4 15  0.0 7.457658648491D-05 9.094947017729D-13 1.440000000000D+04
   -1.760675537109D+04-1.123270034790D+00-0.000000000000D+00 0.000000000000D+00
    1.544988085938D+04 8.294954299927D-01-9.313225746155D-10 1.000000000000D+00
   -1.010926611328D+04 3.217588424683D+00 9.313225746155D-10 0.000000000000D+00
 4 21  7  2  4 15  0.0 9.389873594046D-05 1.818989403546D-12 1.440000000000D+04
   -2.273690771484D+04 9.246702194214D-01-9.313225746155D-10 0.000000000000D+00
    9.172506835938D+03-3.269605636597D-01-0.000000000000D+00 6.000000000000D+00
    7.079594238281D+03 3.407096862793D+00-0.000000000000D+00 0.000000000000D+00
 9 21  7  2  4 15  0.0 8.167698979378D-07 1.818989403546D-12 1.440000000000D+04
    2.915749023438D+03 1.142807006836D-01 1.862645149231D-09 0.000000000000D+00
    2.474786279297D+04 7.204627990723D-01 0.000000000000D+00-2.000000000000D+00
    5.285729492188D+03-3.455705642700D+00 0.000000000000D+00 0.000000000000D+00
10 21  7  2  4 15  0.0-7.244199514389D-05-0.000000000000D+00 1.464000000000D+04
    9.208543945312D+03 1.252660751343D-01 9.313225746155D-10 0.000000000000D+00
    1.447371142578D+04 2.584744453430D+00 9.313225746155D-10-7.000000000000D+00
    1.890133203125D+04-2.033757209778D+00-9.313225746155D-10 0.000000000000D+00
16 21  7  2  4 45  0.0-1.724995672703D-05 0.000000000000D+00 1.620000000000D+04
   -5.012069824219D+03-2.510995864868D-01 0.000000000000D+00 0.000000000000D+00
    1.902496289062D+04-2.213789939880D+00-9.313225746155D-10-1.000000000000D+00
   -1.632763134766D+04-2.493457794189D+00 1.862645149231D-09 0.000000000000D+00
 6 21  7  2  4 45  0.0 2.007223665714D-04 0.000000000000D+00 1.620000000000D+04
   -3.791930664062D+03-2.087637901306D+00 0.000000000000D+00 0.000000000000D+00
    1.539763671875D+04 1.767521858215D+00-9.313225746155D-10-4.000000000000D+00
   -1.999315136719D+04 1.755752563477D+00 1.862645149231D-09 0.000000000000D+00
 4 21  7  2  4 45  0.0 9.390246123075D-05 1.818989403546D-12 1.620000000000D+04
   -2.052814062500D+04 1.490025520325D+00-9.313225746155D-10 0.000000000000D+00
    8.047606933594D+03-9.413795471191D-01-0.000000000000D+00 6.000000000000D+00
    1.285995410156D+04 2.973944664001D+00-9.313225746155D-10 0.000000000000D+00
 5 21  7  2  4 45  0.0 7.457751780748D-05 9.094947017729D-13 1.620000000000D+04
   -1.890583837891D+04-3.283786773682D-01-9.313225746155D-10 0.000000000000D+00
    1.666344580078D+04 4.772567749023D-01-9.313225746155D-10 1.000000000000D+00
   -4.001791503906D+03 3.524435043335D+00 9.313225746155D-10 0.000000000000D+00
 9 21  7  2  4 45  0.0 8.195638656616D-07 1.818989403546D-12 1.620000000000D+04
    3.131355957031D+03 8.532142639160D-02 9.313225746155D-10 0.000000000000D+00
    2.525216552734D+04-1.618366241455D-01-0.000000000000D+00-2.000000000000D+00
   -1.059061035156D+03-3.548082351685D+00 9.313225746155D-10 0.000000000000D+00
10 21  7  2  4 45  0.0-7.244199514389D-05-0.000000000000D+00 1.620000000000D+04
    9.717336914062D+03 4.095296859741D-01 1.862645149231D-09 0.000000000000D+00
    1.858943017578D+04 1.952837944031D+00 9.313225746155D-10-7.000000000000D+00
    1.455878710938D+04-2.759942054749D+00-0.000000000000D+00 0.000000000000D+00
16 21  7  2  5 15  0.0-1.724995672703D-05 0.000000000000D+00 1.800000000000D+04
   -5.869845703125D+03-7.163934707642D-01-0.000000000000D+00 0.000000000000D+00
    1.460514892578D+04-2.652211189270D+00-9.313225746155D-10-1.000000000000D+00
   -2.013108251953D+04-1.705151557922D+00 1.862645149231D-09 0.000000000000D+00
 6 21  7  2  5 15  0.0 2.007232978940D-04 0.000000000000D+00 1.800000000000D+04
   -6.985197753906D+03-1.447114944458D+00-0.000000000000D+00 0.000000000000D+00
    1.852610498047D+04 1.662896156311D+00-9.313225746155D-10-4.000000000000D+00
   -1.610170996094D+04 2.540022850037D+00 1.862645149231D-09 0.000000000000D+00
 5 21  7  2  5 15  0.0 7.457844913006D-05 9.094947017729D-13 1.800000000000D+04
   -1.885122851562D+04 3.633632659912D-01-9.313225746155D-10 0.000000000000D+00
    1.703226855469D+04-9.983539581299D-02-0.000000000000D+00 1.000000000000D+00
    2.414868652344D+03 3.558938026428D+00 0.000000000000D+00 0.000000000000D+00
 9 21  7  2  5 15  0.0 8.223578333855D-07 1.818989403546D-12 1.800000000000D+04
    3.082845214844D+03-1.755924224854D-01 9.313225746155D-10 0.000000000000D+00
    2.419397949219D+04-9.965381622314D-01-0.000000000000D+00-2.000000000000D+00
   -7.321520019531D+03-3.364781379700D+00 1.862645149231D-09 0.000000000000D+00
10 21  7  2  5 15  0.0-7.244199514389D-05 0.000000000000D+00 1.800000000000D+04
    1.055428369141D+04 4.808225631714D-01 1.862645149231D-09 0.000000000000D+00
    2.140485400391D+04 1.156609535217D+00 0.000000000000D+00-7.000000000000D+00
    9.093806152344D+03-3.272906303406D+00-0.000000000000D+00 0.000000000000D+00
16 21  7  2  5 45  0.0-1.724995672703D-05-0.000000000000D+00 1.980000000000D+04
   -7.611950683594D+03-1.216145515442D+00-9.313225746155D-10 0.000000000000D+00
    9.649543457031D+03-2.804550170898D+00-9.313225746155D-10-1.000000000000D+00
   -2.238648925781D+04-7.843828201294D-01 1.862645149231D-09 0.000000000000D+00
 6 21  7  2  5 45  0.0 2.007251605392D-04 0.000000000000D+00 1.980000000000D+04
   -8.987213867188D+03-7.826814651489D-01-0.000000000000D+00 0.000000000000D+00
    2.121941406250D+04 1.285389900208D+00-9.313225746155D-10-4.000000000000D+00
   -1.096705419922D+04 3.128158569336D+00 1.862645149231D-09 0.000000000000D+00
 5 21  7  2  5 45  0.0 7.458031177521D-05 9.094947017729D-13 1.980000000000D+04
   -1.771518652344D+04 8.605442047119D-01-9.313225746155D-10 0.000000000000D+00
    1.621307666016D+04-8.275613784790D-01-0.000000000000D+00 1.000000000000D+00
    8.645085937500D+03 3.318654060364D+00-0.000000000000D+00 0.000000000000D+00
 9 21  7  2  5 45  0.0 8.251518011093D-07 1.818989403546D-12 1.980000000000D+04
    2.384910644531D+03-6.257896423340D-01 0.000000000000D+00 0.000000000000D+00
    2.175792138672D+04-1.676622390747D+00-9.313225746155D-10-2.000000000000D+00
   -1.301494873047D+04-2.919969558716D+00 1.862645149231D-09 0.000000000000D+00
10 21  7  2  5 45  0.0-7.245037704706D-05 0.000000000000D+00 1.980000000000D+04
    1.129956835938D+04 3.057403564453D-01 1.862645149231D-09 0.000000000000D+00
    2.271969921875D+04 3.047161102295D-01-0.000000000000D+00-7.000000000000D+00
    2.928133789062D+03-3.533505439758D+00 0.000000000000D+00 0.000000000000D+00
 7 21  7  2  5 45  0.0-4.216562956572D-05-0.000000000000D+00 2.013000000000D+04
    3.449311523438D+03-1.794792175293D+00 0.000000000000D+00 0.000000000000D+00
    1.256926708984D+04 2.413844108582D+00-9.313225746155D-10 5.000000000000D+00
   -2.189443408203D+04 1.096982002258D+00 2.793967723846D-09 0.000000000000D+00
10 21  7  2  6 15  0.0-7.244944572449D-05 0.000000000000D+00 2.160000000000D+04
    1.151280371094D+04-1.047916412354D-01 9.313225746155D-10 0.000000000000D+00
    2.253756738281D+04-4.880313873291D-01-0.000000000000D+00-7.000000000000D+00
   -3.463079101562D+03-3.521912574768D+00 9.313225746155D-10 0.000000000000D+00
 6 21  7  2  6 15  0.0 2.007260918617D-04 0.000000000000D+00 2.160000000000D+04
   -9.853782714844D+03-2.025003433228D-01-9.313225746155D-10 0.000000000000D+00
    2.300738330078D+04 6.657266616821D-01-0.000000000000D+00-4.000000000000D+00
   -4.985615234375D+03 3.474793434143D+00 9.313225746155D-10 0.000000000000D+00
 5 21  7  2  6 15  0.0 7.458217442036D-05 9.094947017729D-13 2.160000000000D+04
   -1.590461962891D+04 1.106967926025D+00-9.313225746155D-10 0.000000000000D+00
    1.402407226562D+04-1.603176116943D+00 0.000000000000D+00 1.000000000000D+00
    1.420798486328D+04 2.822300910950D+00-9.313225746155D-10 0.000000000000D+00
 7 21  7  2  6 15  0.0-4.216562956572D-05-0.000000000000D+00 2.160000000000D+04
    7.124291992188D+02-1.235052108765D+00-0.000000000000D+00 0.000000000000D+00
    1.686954345703D+04 2.315541267395D+00-9.313225746155D-10 5.000000000000D+00
   -1.909673437500D+04 1.991169929504D+00 1.862645149231D-09 0.000000000000D+00
 9 21  7  2  6 15  0.0 8.270144462585D-07 1.818989403546D-12 2.160000000000D+04
    7.634135742188D+02-1.186186790466D+00-0.000000000000D+00 0.000000000000D+00
    1.830054785156D+04-2.120669364929D+00-9.313225746155D-10-2.000000000000D+00
   -1.769703808594D+04-2.248469352722D+00 1.862645149231D-09 0.000000000000D+00
10 21  7  2  6 45  0.0-7.244944572449D-05 0.000000000000D+00 2.340000000000D+04
    1.081262939453D+04-6.969728469849D-01 0.000000000000D+00 0.000000000000D+00
    2.106042724609D+04-1.119009971619D+00-9.313225746155D-10-7.000000000000D+00
   -9.587583007812D+03-3.239068984985D+00 1.862645149231D-09 0.000000000000D+00
